{"type": "FeatureCollection", "features": [{"type": "Feature", "properties": {"chokepoint_id": "suez_canal", "chokepoint_name": "Suez Canal", "radius_km": 250.0}, "geometry": {"type": "Polygon", "coordinates": [[[34.95373410841299, 30.473996082764998], [34.93863957623849, 30.27774846805296], [34.90400849962019, 30.083373898342735], [34.85021419355196, 29.8923343957909], [34.777766041538534, 29.706058930976486], [34.68730290913614, 29.525933427087352], [34.57958601785547, 29.353291263102168], [34.45549137508643, 29.189404311441162], [34.31600184275875, 29.035474540097063], [34.16219891496533, 28.892626204764916], [33.9952542631744, 28.7618986528377], [33.81642109723182, 28.644239758178387], [33.627025381273725, 28.540500003163533], [33.42845693599102, 28.451427222471217], [33.22216045238299, 28.377662021320088], [33.00962643711655, 28.3197338792418], [32.79238210573099, 28.27805794889281], [32.5719822370383, 28.25293255782001], [32.35, 28.24453741944604], [32.12801776296171, 28.25293255782001], [31.90761789426902, 28.27805794889281], [31.690373562883455, 28.3197338792418], [31.47783954761702, 28.377662021320088], [31.27154306400899, 28.451427222471217], [31.072974618726285, 28.540500003163533], [30.88357890276819, 28.644239758178387], [30.704745736825608, 28.7618986528377], [30.537801085034676, 28.892626204764916], [30.383998157241255, 29.03547454009707], [30.244508624913568, 29.189404311441162], [30.120413982144544, 29.353291263102168], [30.012697090863867, 29.525933427087352], [29.922233958461472, 29.706058930976493], [29.849785806448047, 29.892334395790886], [29.79599150037982, 30.083373898342735], [29.761360423761523, 30.27774846805296], [29.746265891587022, 30.473996082764998], [29.75093921201171, 30.67063212155896], [29.775464516665124, 30.86616022494442], [29.81977449047586, 31.0590835040994], [29.883647139663385, 31.24791603112824], [29.96670374077347, 31.431194531817788], [30.068408113316043, 31.607490191363247], [30.188067352800562, 31.775420472390373], [30.324834149003696, 31.933660833787243], [30.47771079562867, 32.08095622892177], [30.645554971930196, 32.21613225335529], [30.827087344575116, 32.33810580578714], [31.02090099962019, 32.44589512227899], [31.22547267111041, 32.53862904335164], [31.439175685973357, 32.615555376755985], [31.660294496539024, 32.67604822587863], [31.8870406243666, 32.71961416495675], [32.117569794483785, 32.745897157437824], [32.35, 32.75468213260291], [32.582430205516225, 32.745897157437824], [32.81295937563341, 32.719614164956745], [33.039705503460986, 32.676048225878645], [33.26082431402665, 32.615555376755985], [33.47452732888959, 32.53862904335164], [33.679099000379814, 32.44589512227898], [33.8729126554249, 32.338105805787144], [34.054445028069814, 32.21613225335528], [34.222289204371336, 32.080956228921764], [34.37516585099631, 31.93366083378725], [34.511932647199444, 31.77542047239038], [34.63159188668396, 31.607490191363247], [34.73329625922653, 31.431194531817788], [34.81635286033662, 31.24791603112824], [34.88022550952414, 31.0590835040994], [34.92453548333488, 30.86616022494442], [34.9490607879883, 30.670632121558956], [34.95373410841299, 30.473996082764998]]]}}, {"type": "Feature", "properties": {"chokepoint_id": "suez_canal", "chokepoint_name": "Suez Canal", "radius_km": 500.0}, "geometry": {"type": "Polygon", "coordinates": [[[37.554705208934834, 30.396065155938942], [37.51431286376322, 30.0045590721536], [37.43545095486084, 29.61752346176438], [37.319132520031836, 29.2378194142755], [37.166607461522126, 28.868224591086722], [36.97934479213273, 28.51141632171529], [36.75901528964527, 28.169955883585732], [36.507474663882114, 27.846273922210276], [36.22674728038831, 27.542656972002185], [35.919010437750956, 27.261235044951967], [35.58657916145178, 27.003970263562596], [35.23189145478274, 26.772646524532625], [34.85749393523716, 26.56886018961692], [34.46602778116341, 26.39401180900866], [34.06021491645233, 26.249298889806767], [33.642844368717284, 26.13570972721654], [33.216758746972594, 26.054018318843426], [32.78484079651083, 26.004780382752386], [32.35, 25.988330498033015], [31.91515920348918, 26.004780382752386], [31.483241253027415, 26.054018318843426], [31.057155631282725, 26.13570972721654], [30.63978508354768, 26.249298889806763], [30.2339722188366, 26.39401180900866], [29.842506064762848, 26.56886018961692], [29.468108545217266, 26.772646524532625], [29.11342083854823, 27.003970263562596], [28.78098956224905, 27.261235044951967], [28.4732527196117, 27.542656972002188], [28.192525336117892, 27.846273922210276], [27.940984710354737, 28.169955883585732], [27.72065520786728, 28.51141632171529], [27.533392538477887, 28.868224591086722], [27.380867479968177, 29.237819414275492], [27.264549045139173, 29.61752346176438], [27.185687136236783, 30.0045590721536], [27.14529479106518, 30.396065155938942], [27.144130198522387, 30.78911532441958], [27.182678746471222, 31.180737277177872], [27.261135459246482, 31.56793346558353], [27.379388281696894, 31.947703024780125], [27.537002765909214, 32.317064931858965], [27.73320880854557, 32.67308230321093], [27.966890162559345, 33.012887689887826], [28.23657749749484, 33.33370916758892], [28.5404457979062, 33.632896949985316], [28.87631686059494, 33.90795018388968], [29.241667571134208, 34.15654351660055], [29.633644504376118, 34.37655296467328], [30.049085202473293, 34.566080564872856], [30.48454624276002, 34.72347725756235], [30.936337927671758, 34.84736344505622], [31.400565126188685, 34.93664668607314], [31.873173491893528, 34.99053603412564], [32.35, 35.0085526020537], [32.82682650810648, 34.99053603412564], [33.29943487381132, 34.93664668607313], [33.76366207232825, 34.847363445056224], [34.215453757239985, 34.723477257562344], [34.65091479752671, 34.566080564872856], [35.066355495623895, 34.37655296467328], [35.4583324288658, 34.15654351660055], [35.82368313940507, 33.907950183889675], [36.15955420209381, 33.632896949985316], [36.46342250250516, 33.33370916758893], [36.73310983744065, 33.012887689887826], [36.96679119145443, 32.67308230321094], [37.1629972340908, 32.31706493185897], [37.32061171830311, 31.947703024780132], [37.43886454075353, 31.56793346558353], [37.517321253528785, 31.180737277177872], [37.55586980147763, 30.789115324419573], [37.554705208934834, 30.396065155938942]]]}}, {"type": "Feature", "properties": {"chokepoint_id": "suez_canal", "chokepoint_name": "Suez Canal", "radius_km": 1000.0}, "geometry": {"type": "Polygon", "coordinates": [[[42.73751232085842, 30.085545765538996], [42.617384165565575, 29.308802311890897], [42.42374591278387, 28.54365434311088], [42.159471445583065, 27.795480827169545], [41.82772715929922, 27.069448644793237], [41.43193673856204, 26.370493641993626], [40.975752188121135, 25.703303073990217], [40.463030064788526, 25.07229902290383], [39.89781182062341, 24.481622499488115], [39.28430719379667, 23.935118060826156], [38.62687965786357, 23.43631888690944], [37.9300330496891, 22.988432355993403], [37.19839863050667, 22.59432623908298], [36.436721984652145, 22.256515696029886], [35.649849318544014, 21.97715129835468], [34.84271288120853, 21.758008326542864], [34.020315380150926, 21.600477592439756], [33.18771340601205, 21.505558021516205], [32.35, 21.473851197065642], [31.512286593987955, 21.505558021516205], [30.67968461984908, 21.600477592439756], [29.857287118791483, 21.758008326542864], [29.050150681455996, 21.97715129835468], [28.26327801534786, 22.256515696029886], [27.50160136949334, 22.59432623908298], [26.769966950310913, 22.988432355993403], [26.07312034213644, 23.43631888690944], [25.415692806203342, 23.935118060826156], [24.802188179376603, 24.481622499488115], [24.236969935211484, 25.07229902290383], [23.72424781187888, 25.703303073990217], [23.268063261437973, 26.370493641993626], [22.872272840700795, 27.06944864479324], [22.540528554416937, 27.795480827169538], [22.276254087216145, 28.543654343110877], [22.082615834434435, 29.308802311890897], [21.962487679141585, 30.085545765538996], [21.918408581889754, 30.86831453354387], [21.95253227201362, 31.65137073136961], [22.066568677066233, 32.42883562246443], [22.261717221065265, 33.194720696052286], [22.538592777741243, 33.94296382951272], [22.897145885018023, 34.66747136667666], [23.33657979482854, 35.36216682291107], [23.855268003042802, 36.02104670658574], [24.450676996805623, 36.63824361104228], [25.11929995007852, 37.20809627700864], [25.856607834900338, 37.72522576181173], [26.65702471455539, 38.18461620638749], [27.51393366650458, 38.581698012800175], [28.419718708286055, 38.91243060315619], [29.365846212544024, 39.173381409966765], [30.342986664590548, 39.361797436967564], [31.341174449078675, 39.47566570575284], [32.35, 39.51375921645402], [33.358825550921324, 39.47566570575284], [34.357013335409455, 39.361797436967564], [35.334153787455975, 39.17338140996678], [36.28028129171394, 38.91243060315619], [37.18606633349541, 38.58169801280017], [38.04297528544461, 38.18461620638749], [38.84339216509967, 37.725225761811735], [39.580700049921475, 37.20809627700864], [40.24932300319439, 36.63824361104228], [40.84473199695721, 36.02104670658576], [41.363420205171465, 35.36216682291107], [41.80285411498197, 34.667471366676665], [42.161407222258774, 33.94296382951273], [42.438282778934735, 33.194720696052286], [42.63343132293377, 32.42883562246443], [42.74746772798638, 31.65137073136961], [42.78159141811025, 30.86831453354387], [42.73751232085842, 30.085545765538996]]]}}, {"type": "Feature", "properties": {"chokepoint_id": "bab_el_mandeb", "chokepoint_name": "Bab el-Mandeb Strait", "radius_km": 250.0}, "geometry": {"type": "Polygon", "coordinates": [[[45.630605338806845, 12.570119510218758], [45.620115615419785, 12.373292085821923], [45.59225710917026, 12.178105435894338], [45.547278139229945, 11.986037707078806], [45.48555371105415, 11.798540512051307], [45.40758180665716, 11.617028263283824], [45.31397890913191, 11.442867844500602], [45.2054748044734, 11.277368681736458], [45.08290670253322, 11.121773273226006], [44.94721271818157, 10.977248234820868], [44.79942475367358, 10.8448759151336], [44.64066082391083, 10.725646632015584], [44.47211686777325, 10.6204515791647], [44.29505809090584, 10.53007644851047], [44.1108098881456, 10.455195810442428], [43.92074839697685, 10.396368289862918], [43.72629073678122, 10.354032571421046], [43.52888499195938, 10.328504262121031], [43.330000000000005, 10.31997363383125], [43.131115008040624, 10.328504262121031], [42.93370926321878, 10.354032571421046], [42.739251603023156, 10.396368289862918], [42.5491901118544, 10.455195810442428], [42.36494190909416, 10.53007644851047], [42.18788313222675, 10.6204515791647], [42.019339176089176, 10.725646632015584], [41.86057524632643, 10.8448759151336], [41.712787281818436, 10.977248234820868], [41.57709329746678, 11.121773273226005], [41.45452519552661, 11.277368681736458], [41.34602109086809, 11.442867844500602], [41.25241819334284, 11.617028263283824], [41.17444628894585, 11.798540512051305], [41.11272186077005, 11.986037707078806], [41.067742890829734, 12.178105435894336], [41.03988438458022, 12.373292085821923], [41.02939466119316, 12.570119510218758], [41.03639245408714, 12.767093967577743], [41.06086486751805, 12.962717265450305], [41.10266623580333, 13.155498037614196], [41.16151793155771, 13.343963079101618], [41.23700916771635, 13.526668659701606], [41.32859883470343, 13.702211732498599], [41.435618408511445, 13.869240950098973], [41.55727595742344, 14.026467397665108], [41.69266126448943, 14.17267494899213], [41.8407520696555, 14.306730149914035], [42.000421419801455, 14.42759153260209], [42.170446097199495, 14.534318265091688], [42.34951607756291, 14.626078042875356], [42.536244948559045, 14.70215413380571], [42.729181199187636, 14.76195149396161], [42.92682027062746, 14.80500188055556], [43.127617240915335, 14.830967898315992], [43.330000000000005, 14.839645927881097], [43.53238275908467, 14.830967898315992], [43.733179729372544, 14.80500188055556], [43.93081880081237, 14.76195149396161], [44.12375505144095, 14.70215413380571], [44.31048392243709, 14.626078042875353], [44.48955390280051, 14.534318265091688], [44.65957858019855, 14.42759153260209], [44.8192479303445, 14.306730149914035], [44.96733873551057, 14.17267494899213], [45.10272404257656, 14.026467397665108], [45.22438159148856, 13.869240950098979], [45.331401165296576, 13.7022117324986], [45.42299083228366, 13.526668659701606], [45.49848206844228, 13.34396307910162], [45.55733376419667, 13.155498037614196], [45.59913513248196, 12.962717265450305], [45.62360754591286, 12.767093967577743], [45.630605338806845, 12.570119510218758]]]}}, {"type": "Feature", "properties": {"chokepoint_id": "bab_el_mandeb", "chokepoint_name": "Bab el-Mandeb Strait", "radius_km": 500.0}, "geometry": {"type": "Polygon", "coordinates": [[[47.930859360417344, 12.540495529474446], [47.90646573318175, 12.147332363462615], [47.84756486157247, 11.75772007173072], [47.754740136028424, 11.37458531646966], [47.62881410071488, 11.000795796147004], [47.47083981556189, 10.639140434371425], [47.282091351902245, 10.292310247268867], [47.064053445376224, 9.962879948541083], [46.81841030454963, 9.65329035759746], [46.547033556997214, 9.365831684519122], [46.251969307016694, 9.102627774932747], [45.93542428064341, 8.86562140692701], [45.59975104364126, 8.656560739779094], [45.24743229554613, 8.476987019435667], [44.88106426607708, 8.328223647560584], [44.50333926740797, 8.21136671890419], [44.11702748477171, 8.127277125426756], [43.724958116428986, 8.07657431498104], [43.330000000000005, 8.059631777688459], [42.93504188357102, 8.07657431498104], [42.54297251522829, 8.127277125426756], [42.15666073259203, 8.21136671890419], [41.778935733922914, 8.328223647560584], [41.41256770445387, 8.476987019435667], [41.06024895635874, 8.656560739779094], [40.724575719356594, 8.86562140692701], [40.40803069298331, 9.102627774932747], [40.11296644300279, 9.365831684519122], [39.84158969545038, 9.653290357597458], [39.59594655462379, 9.962879948541083], [39.37790864809776, 10.292310247268867], [39.189160184438116, 10.639140434371425], [39.03118589928513, 11.000795796147003], [38.90525986397159, 11.374585316469659], [38.81243513842753, 11.757720071730716], [38.75353426681826, 12.147332363462615], [38.72914063958266, 12.540495529474446], [38.73959077808975, 12.934244377292012], [38.78496763621967, 13.3255961824522], [38.86509505443916, 13.71157218803147], [38.979533543516936, 14.08921953026506], [39.127577613643744, 14.455633498163614], [39.308254896850755, 14.807980012983673], [39.52032733265239, 15.143518187014902], [39.76229469533165, 15.459622791606288], [40.0324007332358, 15.753806433279333], [40.32864216361047, 16.02374120614375], [40.64878071967936, 16.26727956088055], [40.99035838002406, 16.482474107659204], [41.350715825513184, 16.66759605484076], [41.72701406937715, 16.82115197928394], [42.11625909637354, 16.94189862917863], [42.51532923349696, 17.028855477618297], [42.92100486440202, 17.08131477485413], [43.330000000000005, 17.098848888745778], [43.73899513559798, 17.081314774854132], [44.14467076650304, 17.028855477618293], [44.543740903626464, 16.94189862917863], [44.93298593062285, 16.821151979283947], [45.30928417448681, 16.667596054840764], [45.66964161997594, 16.482474107659204], [46.011219280320645, 16.267279560880556], [46.331357836389536, 16.02374120614375], [46.6275992667642, 15.75380643327933], [46.89770530466836, 15.459622791606288], [47.13967266734761, 15.143518187014905], [47.35174510314925, 14.807980012983677], [47.53242238635625, 14.455633498163618], [47.68046645648307, 14.089219530265062], [47.794904945560845, 13.71157218803147], [47.87503236378033, 13.3255961824522], [47.92040922191026, 12.934244377292012], [47.930859360417344, 12.540495529474446]]]}}, {"type": "Feature", "properties": {"chokepoint_id": "bab_el_mandeb", "chokepoint_name": "Bab el-Mandeb Strait", "radius_km": 1000.0}, "geometry": {"type": "Polygon", "coordinates": [[[52.528923105375526, 12.422261453759782], [52.4669061390041, 11.639261515166353], [52.33726759994163, 10.86433860087287], [52.14144432029466, 10.103167243220975], [51.881268558543184, 9.36129172148243], [51.5589532061855, 8.644095188049828], [51.177078720033194, 7.956769247762705], [50.73858110079675, 7.304283786230184], [50.24674011204211, 6.691356953062155], [49.70516686703121, 6.122425325999602], [49.11778990524478, 5.601614404994254], [48.48883893486537, 5.132709704029638], [47.822825529427895, 4.719128815522633], [47.124520230768155, 4.363894910332132], [46.39892571764131, 4.069612199215015], [45.65124593784727, 3.8384439136675805], [44.88685135611861, 3.6720933618660663], [44.11124072273158, 3.5717885775077574], [43.330000000000005, 3.538271006989387], [42.548759277268424, 3.5717885775077574], [41.77314864388139, 3.6720933618660663], [41.00875406215274, 3.8384439136675805], [40.26107428235869, 4.069612199215014], [39.53547976923185, 4.363894910332132], [38.83717447057211, 4.719128815522633], [38.17116106513463, 5.132709704029638], [37.54221009475523, 5.601614404994254], [36.954833132968794, 6.122425325999602], [36.4132598879579, 6.691356953062151], [35.92141889920326, 7.304283786230184], [35.48292127996681, 7.956769247762705], [35.101046793814504, 8.644095188049828], [34.77873144145683, 9.361291721482427], [34.51855567970536, 10.103167243220973], [34.322732400058364, 10.864338600872863], [34.1930938609959, 11.639261515166353], [34.13107689462448, 12.422261453759779], [34.13770589281774, 13.207565255603427], [34.213573317207995, 13.989333873338486], [34.35881776643216, 14.761696641944843], [34.57309996560862, 15.518787487502177], [34.85557740622371, 16.25478345540208], [35.204878743706935, 16.96394585859461], [35.619079433330775, 17.640664221137115], [36.095680424617875, 18.279503020659376], [36.63159200615694, 18.87525101910869], [37.22312505853787, 19.42297272246225], [37.86599199443496, 19.91806124023323], [38.55531950784669, 20.356291542982962], [39.285674896498236, 20.733872863627372], [40.05110715776221, 21.04749878191424], [40.84520330815047, 21.29439339712646], [41.66115948512069, 21.47235195477166], [42.491865428735245, 21.579774364831195], [43.330000000000005, 21.615690237920237], [44.16813457126476, 21.579774364831195], [44.998840514879305, 21.47235195477166], [45.81479669184954, 21.29439339712647], [46.608892842237786, 21.04749878191425], [47.37432510350176, 20.73387286362738], [48.10468049215331, 20.356291542982966], [48.79400800556505, 19.918061240233232], [49.436874941462136, 19.422972722462248], [50.028407993843054, 18.875251019108685], [50.56431957538212, 18.27950302065938], [51.04092056666922, 17.640664221137122], [51.45512125629307, 16.963945858594617], [51.804422593776295, 16.254783455402087], [52.086900034391384, 15.518787487502182], [52.30118223356784, 14.761696641944843], [52.44642668279201, 13.989333873338492], [52.52229410718226, 13.207565255603432], [52.528923105375526, 12.422261453759782]]]}}, {"type": "Feature", "properties": {"chokepoint_id": "strait_of_hormuz", "chokepoint_name": "Strait of Hormuz", "radius_km": 250.0}, "geometry": {"type": "Polygon", "coordinates": [[[58.75897311377809, 26.547904443712884], [58.7451810566928, 26.351499543814846], [58.71253342380512, 26.156911483945347], [58.661368592979805, 25.965606476734465], [58.59215788246525, 25.77901924024582], [58.50549973678609, 25.598542829540314], [58.402113310932755, 25.42551893054459], [58.28283153620725, 25.261228658473776], [58.148593741421806, 25.106883898081875], [58.00043789380596, 24.9636192188035], [57.83949251532992, 24.83248439429543], [57.66696832245369, 24.714437552854555], [57.48414963070695, 24.61033898254055], [57.292385560047855, 24.52094561243389], [57.09308107260505, 24.446906189189868], [56.88768787109147, 24.38875716580583], [56.67769518375335, 24.346919317223104], [56.46462046003134, 24.32169509498583], [56.25, 24.313266730650998], [56.03537953996866, 24.32169509498583], [55.82230481624665, 24.346919317223104], [55.61231212890853, 24.38875716580583], [55.40691892739495, 24.446906189189868], [55.207614439952145, 24.52094561243389], [55.01585036929305, 24.61033898254055], [54.83303167754631, 24.714437552854555], [54.66050748467007, 24.83248439429543], [54.49956210619405, 24.9636192188035], [54.351406258578194, 25.10688389808187], [54.217168463792746, 25.261228658473776], [54.09788668906724, 25.42551893054459], [53.994500263213915, 25.598542829540314], [53.90784211753475, 25.779019240245812], [53.838631407020195, 25.965606476734465], [53.78746657619487, 26.156911483945343], [53.75481894330721, 26.351499543814846], [53.74102688622191, 26.547904443712884], [53.74629072286807, 26.744639059110085], [53.77066838781599, 26.940206295695532], [53.81407201380736, 27.13311032859964], [53.87626553207604, 27.32186806804507], [53.95686340727464, 27.5050207718225], [54.05533062098341, 27.681145715719012], [54.170984011417545, 27.848867823750833], [54.302995065500625, 28.006871151175513], [54.450394242572834, 28.153910105252557], [54.61207688655603, 28.288820282091415], [54.7868107556254, 28.410528793195727], [54.973245165909695, 28.518063952978117], [55.169921709392995, 28.610564199028076], [55.375286467296284, 28.687286120612825], [55.58770360034537, 28.747611478001758], [55.8054701582643, 28.79105310579369], [56.02683191445534, 28.817259607385086], [56.25, 28.82601876475418], [56.47316808554466, 28.817259607385086], [56.6945298417357, 28.79105310579369], [56.91229639965463, 28.747611478001758], [57.12471353270371, 28.687286120612832], [57.330078290607, 28.610564199028076], [57.52675483409031, 28.518063952978114], [57.7131892443746, 28.410528793195727], [57.88792311344398, 28.288820282091418], [58.04960575742716, 28.15391010525256], [58.197004934499375, 28.006871151175517], [58.329015988582455, 27.848867823750833], [58.44466937901658, 27.681145715719026], [58.543136592725354, 27.505020771822508], [58.62373446792395, 27.321868068045074], [58.68592798619263, 27.13311032859964], [58.729331612184005, 26.940206295695532], [58.75370927713194, 26.74463905911009], [58.75897311377809, 26.547904443712884]]]}}, {"type": "Feature", "properties": {"chokepoint_id": "strait_of_hormuz", "chokepoint_name": "Strait of Hormuz", "radius_km": 500.0}, "geometry": {"type": "Polygon", "coordinates": [[[61.26602556792983, 26.481676800558084], [61.230081579067864, 26.089713942217738], [61.15691622074297, 25.702000132268502], [61.04742538988186, 25.321413895087737], [60.90274193929722, 24.95075603372545], [60.724220212942505, 24.592731959368468], [60.51342062314454, 24.249935102163594], [60.272094368227826, 23.92483138647717], [60.00216833776918, 23.619744756467725], [59.705730212852096, 23.336843743951157], [59.3850137400275, 23.07812907864608], [59.04238413953277, 22.845422349794145], [58.68032359953011, 22.640355736790525], [58.30141680723085, 22.46436283394192], [57.90833647309992, 22.318670600102113], [57.503828814112175, 22.204292467242293], [57.09069897447205, 22.122022642735672], [56.67179637560259, 22.07243163823393], [56.25, 22.05586305364539], [55.82820362439741, 22.07243163823393], [55.40930102552795, 22.122022642735672], [54.99617118588782, 22.204292467242293], [54.59166352690008, 22.318670600102113], [54.19858319276915, 22.46436283394192], [53.81967640046988, 22.640355736790525], [53.45761586046722, 22.845422349794145], [53.11498625997249, 23.07812907864608], [52.79426978714791, 23.336843743951157], [52.497831662230816, 23.61974475646772], [52.227905631772174, 23.924831386477173], [51.98657937685546, 24.249935102163594], [51.77577978705749, 24.592731959368468], [51.597258060702785, 24.950756033725447], [51.45257461011814, 25.321413895087737], [51.34308377925703, 25.702000132268495], [51.26991842093213, 26.089713942217738], [51.23397443207018, 26.481676800558084], [51.23589540724065, 26.87495122857077], [51.27605764166218, 27.266560663982297], [51.35455579236925, 27.653510428120182], [51.471189586495306, 28.032809759307554], [51.62545204379101, 28.40149485126047], [51.81651975053837, 28.756652795763483], [52.04324577704553, 29.095446281695068], [52.30415586351041, 29.415138848965775], [52.5974485018851, 29.713120438336475], [52.920999507920925, 29.986932919420326], [53.2723716029578, 30.234295223171305], [53.64882940694271, 30.45312765607491], [54.04736008370569, 30.641574935564485], [54.46469968174328, 30.79802746420865], [54.89736498788265, 30.92114035767106], [55.34169047031472, 31.00984976098768], [55.79386964769153, 31.063386030522395], [56.25, 31.081283424471298], [56.70613035230846, 31.063386030522395], [57.15830952968528, 31.00984976098768], [57.60263501211735, 30.92114035767106], [58.035300318256716, 30.79802746420865], [58.452639916294295, 30.641574935564485], [58.85117059305728, 30.45312765607491], [59.227628397042196, 30.234295223171305], [59.57900049207907, 29.98693291942033], [59.90255149811489, 29.71312043833648], [60.1958441364896, 29.415138848965782], [60.45675422295447, 29.09544628169507], [60.68348024946164, 28.75665279576349], [60.87454795620899, 28.40149485126048], [61.02881041350469, 28.032809759307565], [61.145444207630746, 27.653510428120182], [61.223942358337816, 27.2665606639823], [61.26410459275937, 26.87495122857077], [61.26602556792983, 26.481676800558084]]]}}, {"type": "Feature", "properties": {"chokepoint_id": "strait_of_hormuz", "chokepoint_name": "Strait of Hormuz", "radius_km": 1000.0}, "geometry": {"type": "Polygon", "coordinates": [[[66.26680903345542, 26.217646996798287], [66.16257824674763, 25.439112650836393], [65.98669393816901, 24.67134006225345], [65.74165497486491, 23.919789251857615], [65.43028286679494, 23.18972594399537], [65.0556904104786, 22.48619944163231], [64.62125533300431, 21.814021806576168], [64.13059806501367, 21.177747975746733], [63.58756270103917, 20.581656563484366], [62.99620019876797, 20.029731217143972], [62.36075291377063, 19.525642503367653], [61.68563965260985, 19.07273040110222], [60.97544054576029, 18.67398756101878], [60.23488118382351, 18.332043556595888], [59.468815617757784, 18.049150397570664], [58.682207987883885, 17.82716960039165], [57.88011270876413, 17.667561112318594], [57.06765328916716, 17.571374366560853], [56.25, 17.539241707105923], [55.43234671083284, 17.571374366560853], [54.61988729123587, 17.667561112318594], [53.81779201211612, 17.82716960039165], [53.03118438224221, 18.049150397570664], [52.26511881617648, 18.332043556595888], [51.524559454239714, 18.67398756101878], [50.814360347390156, 19.07273040110222], [50.13924708622937, 19.525642503367653], [49.50379980123203, 20.029731217143972], [48.91243729896083, 20.581656563484366], [48.369401934986335, 21.177747975746733], [47.87874466699568, 21.814021806576168], [47.444309589521396, 22.48619944163231], [47.069717133205074, 23.189725943995363], [46.758345025135085, 23.919789251857615], [46.513306061830995, 24.671340062253442], [46.337421753252364, 25.439112650836393], [46.23319096654458, 26.217646996798287], [46.20275284523689, 27.001312696524952], [46.24784351723896, 27.78433525165331], [46.369746446686506, 28.560825397331573], [46.56923674104351, 29.324812183400073], [46.8465203001108, 30.070280522006286], [47.20116938101273, 30.791213855930774], [47.632056929883625, 31.481642468922114], [48.13729285240486, 32.135697741045746], [48.71416619178389, 32.74767234169418], [49.35909785856095, 33.31208595178648], [50.067608994997556, 33.82375562752316], [50.83431013168732, 34.27786938771319], [51.6529158896396, 34.670061067278276], [52.51628901762042, 34.99648398691629], [53.4165160159138, 35.25388060770461], [54.345014554412835, 35.43964513454353], [55.29267051209774, 35.55187605778315], [56.25, 35.589415909420374], [57.20732948790225, 35.55187605778315], [58.15498544558716, 35.43964513454354], [59.08348398408619, 35.253880607704616], [59.98371098237956, 34.996483986916296], [60.84708411036039, 34.670061067278276], [61.66568986831268, 34.27786938771319], [62.43239100500244, 33.82375562752317], [63.14090214143906, 33.312085951786486], [63.785833808216104, 32.74767234169418], [64.36270714759515, 32.13569774104575], [64.86794307011637, 31.481642468922125], [65.29883061898727, 30.791213855930792], [65.65347969988919, 30.070280522006296], [65.93076325895649, 29.324812183400084], [66.1302535533135, 28.560825397331573], [66.25215648276102, 27.784335251653314], [66.29724715476311, 27.00131269652496], [66.26680903345542, 26.217646996798287]]]}}]}